NORAD_CAT_ID,OBJECT_NAME,OBJECT_TYPE,EPOCH,MEAN_MOTION,ECCENTRICITY,INCLINATION,RA_OF_ASC_NODE,ARG_OF_PERICENTER,MEAN_ANOMALY,BSTAR,MEAN_MOTION_DOT,MEAN_MOTION_DDOT,TLE_LINE0,TLE_LINE1,TLE_LINE2,SEMIMAJOR_AXIS,PERIOD,APOGEE,PERIGEE,DECAYED
52863.0,STARLINK-4270,PAYLOAD,2023-09-09 03:26:09,15.08840701,0.0001359,53.2168,160.7034,83.6756,276.4391,6.7915e-05,7.93e-06,0.0,0 STARLINK-4270,1 52863U 22062AK  23252.14316052  .00000793  00000-0  67915-4 0  9993,2 52863  53.2168 160.7034 0001359  83.6756 276.4391 15.08840701 68162,6917.878,95.438,540.683,538.803,0.0
52863.0,STARLINK-4270,PAYLOAD,2023-09-10 03:16:56,15.08829987,0.0001462,53.2173,156.2417,89.3615,270.7545,0.00026544,3.938e-05,0.0,0 STARLINK-4270,1 52863U 22062AK  23253.13676187  .00003938  00000-0  26544-3 0  9997,2 52863  53.2173 156.2417 0001462  89.3615 270.7545 15.08829987 68807,6917.911,95.438,540.787,538.765,0.0
52863.0,STARLINK-4270,PAYLOAD,2023-09-11 03:07:43,15.08841994,0.0001457,53.2175,151.7795,95.3805,264.7353,9.8701e-06,-1.31e-06,0.0,0 STARLINK-4270,1 52863U 22062AK  23254.13036182 -.00000131  00000-0  98701-5 0  9992,2 52863  53.2175 151.7795 0001457  95.3805 264.7353 15.08841994 68464,6917.874,95.437,540.747,538.731,0.0
52863.0,STARLINK-4270,PAYLOAD,2023-09-12 01:23:06,15.08847726,0.000134,53.2163,147.6179,94.24,265.8745,1.3055e-05,-8e-07,0.0,0 STARLINK-4270,1 52863U 22062AK  23255.05771835 -.00000080  00000-0  13055-4 0  9996,2 52863  53.2163 147.6179 0001340  94.2400 265.8745 15.08847726 69097,6917.857,95.437,540.649,538.795,0.0
52863.0,STARLINK-4270,PAYLOAD,2023-09-12 02:58:30,15.08847422,0.0001388,53.2165,147.3208,91.4804,268.6347,1.7525e-05,-9e-08,0.0,0 STARLINK-4270,1 52863U 22062AK  23255.12395851 -.00000009  00000-0  17525-4 0  9991,2 52863  53.2165 147.3208 0001388  91.4804 268.6347 15.08847422 68617,6917.858,95.437,540.683,538.763,0.0
52863.0,STARLINK-4270,PAYLOAD,2023-09-12 20:27:45,15.08839176,0.0001339,53.2169,144.0503,98.081,262.0334,-9.4179e-06,-4.38e-06,0.0,0 STARLINK-4270,1 52863U 22062AK  23255.85260620 -.00000438  00000-0 -94179-5 0  9994,2 52863  53.2169 144.0503 0001339  98.0810 262.0334 15.08839176 68722,6917.883,95.438,540.674,538.822,0.0
52863.0,STARLINK-4270,PAYLOAD,2023-09-12 23:38:30,15.08845554,0.0001284,53.2168,143.4559,83.4207,276.6931,7.2033e-05,8.59e-06,0.0,0 STARLINK-4270,1 52863U 22062AK  23255.98507979  .00000859  00000-0  72033-4 0  9998,2 52863  53.2168 143.4559 0001284  83.4207 276.6931 15.08845554 69230,6917.863,95.437,540.617,538.84,0.0
52863.0,STARLINK-4270,PAYLOAD,2023-09-13 21:53:54,15.08848215,0.0001251,53.2176,139.2946,91.1688,268.9447,4.598e-05,4.44e-06,0.0,0 STARLINK-4270,1 52863U 22062AK  23256.91243743  .00000444  00000-0  45980-4 0  9999,2 52863  53.2176 139.2946 0001251  91.1688 268.9447 15.08848215 68888,6917.855,95.437,540.586,538.855,0.0
52863.0,STARLINK-4270,PAYLOAD,2023-09-14 01:04:40,15.08853422,0.0001241,53.2178,138.6993,90.2578,269.8556,8.6464e-05,1.089e-05,0.0,0 STARLINK-4270,1 52863U 22062AK  23257.04491172  .00001089  00000-0  86464-4 0  9993,2 52863  53.2178 138.6993 0001241  90.2578 269.8556 15.08853422 69396,6917.839,95.437,540.563,538.846,0.0
52863.0,STARLINK-4270,PAYLOAD,2023-09-14 21:44:43,15.0883243,0.0001335,53.2178,134.833,88.0427,272.0718,-9.3557e-05,-1.776e-05,0.0,0 STARLINK-4270,1 52863U 22062AK  23257.90605361 -.00001776  00000-0 -93557-4 0  9991,2 52863  53.2178 134.8330 0001335  88.0427 272.0718 15.08832430 69034,6917.904,95.438,540.692,538.845,0.0
52863.0,STARLINK-4270,PAYLOAD,2023-09-15 02:30:52,15.08832959,0.0001284,53.2173,133.94,85.0356,275.0783,-9.9594e-05,-1.872e-05,0.0,0 STARLINK-4270,1 52863U 22062AK  23258.10477400 -.00001872  00000-0 -99594-4 0  9999,2 52863  53.2173 133.9400 0001284  85.0356 275.0783 15.08832959 69556,6917.902,95.438,540.655,538.879,0.0
52863.0,STARLINK-4270,PAYLOAD,2023-09-16 00:46:14,15.08854482,0.0001439,53.218,129.7755,102.3688,257.7465,7.4954e-05,9.06e-06,0.0,0 STARLINK-4270,1 52863U 22062AK  23259.03211513  .00000906  00000-0  74954-4 0  9991,2 52863  53.2180 129.7755 0001439 102.3688 257.7465 15.08854482 69697,6917.836,95.437,540.697,538.706,0.0
52863.0,STARLINK-4270,PAYLOAD,2023-09-17 00:37:03,15.08832031,0.0001301,53.217,125.3157,83.8887,276.2253,0.0001011,1.321e-05,0.0,0 STARLINK-4270,1 52863U 22062AK  23260.02573328  .00001321  00000-0  10110-3 0  9992,2 52863  53.2170 125.3157 0001301  83.8887 276.2253 15.08832031 69840,6917.905,95.438,540.67,538.87,0.0
52863.0,STARLINK-4270,PAYLOAD,2023-09-17 14:55:31,15.08847334,0.0001343,53.2172,122.6403,83.5357,276.5788,-3.4992e-06,-3.44e-06,0.0,0 STARLINK-4270,1 52863U 22062AK  23260.62188845 -.00000344  00000-0 -34992-5 0  9996,2 52863  53.2172 122.6403 0001343  83.5357 276.5788 15.08847334 69939,6917.858,95.437,540.652,538.794,0.0
52863.0,STARLINK-4270,PAYLOAD,2023-09-18 00:27:49,15.08853626,0.0001313,53.217,120.855,89.7776,270.3367,5.2115e-05,5.42e-06,0.0,0 STARLINK-4270,1 52863U 22062AK  23261.01932089  .00000542  00000-0  52115-4 0  9991,2 52863  53.2170 120.8550 0001313  89.7776 270.3367 15.08853626 69992,6917.839,95.437,540.612,538.795,0.0
52863.0,STARLINK-4270,PAYLOAD,2023-09-18 17:57:04,15.08839182,0.0001328,53.2165,117.5843,79.9405,280.1737,5.7926e-05,6.34e-06,0.0,0 STARLINK-4270,1 52863U 22062AK  23261.74796976  .00000634  00000-0  57926-4 0  9991,2 52863  53.2165 117.5843 0001328  79.9405 280.1737 15.08839182 70106,6917.883,95.438,540.667,538.829,0.0
52863.0,STARLINK-4270,PAYLOAD,2023-09-18 21:07:50,15.08842122,0.0001434,53.2177,116.987,92.1143,268.0013,7.9595e-05,9.79e-06,0.0,0 STARLINK-4270,1 52863U 22062AK  23261.88044504  .00000979  00000-0  79595-4 0  9997,2 52863  53.2177 116.9870 0001434  92.1143 268.0013 15.08842122 69632,6917.874,95.437,540.731,538.747,0.0
52863.0,STARLINK-4270,PAYLOAD,2023-09-19 17:47:52,15.08764203,0.0001767,53.2174,113.1213,100.1725,259.9467,0.0012234,0.00019196,0.0,0 STARLINK-4270,1 52863U 22062AK  23262.74157822  .00019196  00000-0  12234-2 0  9997,2 52863  53.2174 113.1213 0001767 100.1725 259.9467 15.08764203 70259,6918.112,95.442,541.2,538.755,0.0
52863.0,STARLINK-4270,PAYLOAD,2023-09-20 00:09:25,15.08771361,0.0001785,53.2174,111.9321,91.9999,268.1198,0.0011805,0.00018514,0.0,0 STARLINK-4270,1 52863U 22062AK  23263.00654617  .00018514  00000-0  11805-2 0  9997,2 52863  53.2174 111.9321 0001785  91.9999 268.1198 15.08771361 69800,6918.09,95.442,541.19,538.72,0.0
52863.0,STARLINK-4270,PAYLOAD,2023-09-20 19:14:02,15.0882754,0.0001327,53.2171,108.3647,95.1567,264.9577,-7.2934e-05,-1.448e-05,0.0,0 STARLINK-4270,1 52863U 22062AK  23263.80142061 -.00001448  00000-0 -72934-4 0  9992,2 52863  53.2171 108.3647 0001327  95.1567 264.9577 15.08827540 70412,6917.918,95.438,540.701,538.865,0.0
52863.0,STARLINK-4270,PAYLOAD,2023-09-20 20:49:25,15.08827725,0.0001321,53.2172,108.0673,93.2143,266.9001,-7.0167e-05,-1.404e-05,0.0,0 STARLINK-4270,1 52863U 22062AK  23263.86766096 -.00001404  00000-0 -70167-4 0  9996,2 52863  53.2172 108.0673 0001321  93.2143 266.9001 15.08827725 69936,6917.918,95.438,540.697,538.869,0.0
52863.0,STARLINK-4270,PAYLOAD,2023-09-21 06:21:44,15.08834167,0.0001278,53.2173,106.2844,90.2234,269.8905,-1.195e-06,-3.07e-06,0.0,0 STARLINK-4270,1 52863U 22062AK  23264.26509757 -.00000307  00000-0 -11950-5 0  9997,2 52863  53.2173 106.2844 0001278  90.2234 269.8905 15.08834167 70481,6917.898,95.438,540.647,538.879,0.0
52863.0,STARLINK-4270,PAYLOAD,2023-09-21 19:04:49,15.08839009,0.0001277,53.217,103.9056,90.7317,269.3822,2.003e-05,3.1e-07,0.0,0 STARLINK-4270,1 52863U 22062AK  23264.79501620  .00000031  00000-0  20030-4 0  9996,2 52863  53.2170 103.9056 0001277  90.7317 269.3822 15.08839009 70071,6917.883,95.438,540.632,538.865,0.0
52863.0,STARLINK-4270,PAYLOAD,2023-09-22 17:20:13,15.08842217,0.0001125,53.2165,99.7431,91.2297,268.8824,0.00022006,3.216e-05,0.0,0 STARLINK-4270,1 52863U 22062AK  23265.72237354  .00003216  00000-0  22006-3 0  9992,2 52863  53.2165  99.7431 0001125  91.2297 268.8824 15.08842217 70700,6917.874,95.437,540.517,538.96,0.0
52863.0,STARLINK-4270,PAYLOAD,2023-09-22 20:30:59,15.08845174,0.0001127,53.2166,99.1484,90.6376,269.4745,0.00024602,3.63e-05,0.0,0 STARLINK-4270,1 52863U 22062AK  23265.85485193  .00003630  00000-0  24602-3 0  9996,2 52863  53.2166  99.1484 0001127  90.6376 269.4745 15.08845174 70238,6917.865,95.437,540.509,538.95,0.0
52863.0,STARLINK-4270,PAYLOAD,2023-09-23 06:03:18,15.08844584,0.0001158,53.2159,97.3642,84.0375,276.0749,0.00018273,2.622e-05,0.0,0 STARLINK-4270,1 52863U 22062AK  23266.25229397  .00002622  00000-0  18273-3 0  9990,2 52863  53.2159  97.3642 0001158  84.0375 276.0749 15.08844584 70294,6917.866,95.437,540.532,538.93,0.0
52863.0,STARLINK-4270,PAYLOAD,2023-09-23 18:46:23,15.08841813,0.0001228,53.2161,94.9844,84.6748,275.4384,1.8054e-05,-1e-08,0.0,0 STARLINK-4270,1 52863U 22062AK  23266.78221547 -.00000001  00000-0  18054-4 0  9995,2 52863  53.2161  94.9844 0001228  84.6748 275.4384 15.08841813 70865,6917.875,95.437,540.589,538.89,0.0
52863.0,STARLINK-4270,PAYLOAD,2023-09-24 12:15:37,15.088488,0.0001127,53.217,91.7141,89.3566,270.7555,6.1882e-06,-1.89e-06,0.0,0 STARLINK-4270,1 52863U 22062AK  23267.51085413 -.00000189  00000-0  61882-5 0  9992,2 52863  53.2170  91.7141 0001127  89.3566 270.7555 15.08848800 70487,6917.853,95.437,540.498,538.939,0.0
52863.0,STARLINK-4270,PAYLOAD,2023-09-24 18:37:10,15.08850927,0.0001213,53.2168,90.5241,87.942,272.1711,6.1188e-05,6.86e-06,0.0,0 STARLINK-4270,1 52863U 22062AK  23267.77581026  .00000686  00000-0  61188-4 0  9990,2 52863  53.2168  90.5241 0001213  87.9420 272.1711 15.08850927 70529,6917.847,95.437,540.551,538.873,0.0
52863.0,STARLINK-4270,PAYLOAD,2023-09-25 05:44:51,15.08849773,0.0001187,53.2169,88.4434,81.7146,278.398,2.1556e-05,5.5e-07,0.0,0 STARLINK-4270,1 52863U 22062AK  23268.23949021  .00000055  00000-0  21556-4 0  9990,2 52863  53.2169  88.4434 0001187  81.7146 278.3980 15.08849773 70597,6917.851,95.437,540.537,538.894,0.0
